[{"OBJECT_NAME":"STARLINK-30521","OBJECT_ID":"2023-151C","EPOCH":"2026-03-09T03:09:39.578112","MEAN_MOTION":15.27587305,"ECCENTRICITY":0.00020162,"INCLINATION":43.0018,"RA_OF_ASC_NODE":338.9336,"ARG_OF_PERICENTER":248.1219,"MEAN_ANOMALY":111.9418,"EPHEMERIS_TYPE":0,"CLASSIFICATION_TYPE":"U","NORAD_CAT_ID":57966,"ELEMENT_SET_NO":999,"REV_AT_EPOCH":13568,"BSTAR":-0.00016835112,"MEAN_MOTION_DOT":-4.893e-5,"MEAN_MOTION_DDOT":0},{"OBJECT_NAME":"FLOCK 4G-17","OBJECT_ID":"2025-009CA","EPOCH":"2026-03-09T22:51:51.984864","MEAN_MOTION":15.27385439,"ECCENTRICITY":0.00036407,"INCLINATION":97.3966,"RA_OF_ASC_NODE":151.0229,"ARG_OF_PERICENTER":339.6132,"MEAN_ANOMALY":20.4962,"EPHEMERIS_TYPE":0,"CLASSIFICATION_TYPE":"U","NORAD_CAT_ID":62681,"ELEMENT_SET_NO":999,"REV_AT_EPOCH":12139,"BSTAR":0.00053710713,"MEAN_MOTION_DOT":0.00014342,"MEAN_MOTION_DDOT":0}]
